#cV2022  2 21  0  0  0.00000000    1919   SLR   ECF FIT NSGF
## 2198  86400.00000000   180.00000000 59631 0.0000000000000
+    1   L56  0  0  0  0  0  0  0  0  0  0  0  0  0  0  0  0
+          0  0  0  0  0  0  0  0  0  0  0  0  0  0  0  0  0
+          0  0  0  0  0  0  0  0  0  0  0  0  0  0  0  0  0
+          0  0  0  0  0  0  0  0  0  0  0  0  0  0  0  0  0
+          0  0  0  0  0  0  0  0  0  0  0  0  0  0  0  0  0
++         0  0  0  0  0  0  0  0  0  0  0  0  0  0  0  0  0
++         0  0  0  0  0  0  0  0  0  0  0  0  0  0  0  0  0
++         0  0  0  0  0  0  0  0  0  0  0  0  0  0  0  0  0
++         0  0  0  0  0  0  0  0  0  0  0  0  0  0  0  0  0
++         0  0  0  0  0  0  0  0  0  0  0  0  0  0  0  0  0
%c L  cc UTC ccc cccc cccc cccc cccc ccccc ccccc ccccc ccccc
%c cc cc ccc ccc cccc cccc cccc cccc ccccc ccccc ccccc ccccc
%f  0.0000000  0.000000000  0.00000000000  0.000000000000000
%f  0.0000000  0.000000000  0.00000000000  0.000000000000000
%i    0    0    0    0      0      0      0      0         0
%i    0    0    0    0      0      0      0      0         0
/*                                                          
/* Earth-centered-fixed orbital predictions from SGF ILRS AC
/* The underlying ECF frame is that of IERS/ITRF            
/* Note: Solution based on 4-day long arc                   
/*                                                          
*  2022  2 21 23 48  0.00000000
PL56   1252.588899   -523.277721  -7061.219435
VL56  13840.653000 -73446.444000   7872.685600
*  2022  2 21 23 51  0.00000000
PL56   1461.612947  -1831.685814  -6798.313124
VL56   9326.036900 -71495.319000  21255.396000
*  2022  2 21 23 54  0.00000000
PL56   1586.905719  -3081.630376  -6300.395687
VL56   4574.880400 -66967.362000  33910.408000
*  2022  2 21 23 57  0.00000000
PL56   1626.253894  -4227.912021  -5584.515831
VL56   -185.538560 -60009.212000  45403.715000
*  2022  2 22  0  0  0.00000000
PL56   1581.512644  -5228.772956  -4675.225980
VL56  -4732.026900 -50855.681000  55337.969000
*  2022  2 22  0  3  0.00000000
PL56   1458.446991  -6047.428976  -3603.800067
VL56  -8854.945000 -39823.333000  63365.832000
*  2022  2 22  0  6  0.00000000
PL56   1266.403428  -6653.460468  -2407.215313
VL56 -12367.452000 -27300.909000  69202.988000
*  2022  2 22  0  9  0.00000000
PL56   1017.823067  -7024.001088  -1126.913222
VL56 -15113.849000 -13736.483000  72639.492000
*  2022  2 22  0 12  0.00000000
PL56    727.614681  -7144.664484    192.625478
VL56 -16976.734000    378.725530  73548.867000
*  2022  2 22  0 15  0.00000000
PL56    412.413207  -7010.155515   1505.441894
VL56 -17882.438000  14529.041000  71894.011000
*  2022  2 22  0 18  0.00000000
PL56     89.759767  -6624.531005   2765.733789
VL56 -17804.295000  28194.539000  67729.555000
*  2022  2 22  0 21  0.00000000
PL56   -222.757198  -6001.088142   3929.498542
VL56 -16763.674000  40871.926000  61200.094000
*  2022  2 22  0 24  0.00000000
PL56   -508.357320  -5161.880435   4956.105059
VL56 -14828.578000  52094.627000  52534.438000
*  2022  2 22  0 27  0.00000000
PL56   -751.876457  -4136.896259   5809.729482
VL56 -12109.764000  61450.416000  42036.175000
*  2022  2 22  0 30  0.00000000
PL56   -940.488147  -2962.939056   6460.607404
VL56  -8755.117600  68596.633000  30072.843000
*  2022  2 22  0 33  0.00000000
PL56  -1064.306872  -1682.258287   6886.056227
VL56  -4942.193000  73272.404000  17061.397000
*  2022  2 22  0 36  0.00000000
PL56  -1116.848367   -340.998920   7071.240153
VL56   -869.885680  75306.991000   3454.301300
*  2022  2 22  0 39  0.00000000
PL56  -1095.332460   1012.477916   7009.671523
VL56   3250.728000  74625.587000 -10275.930000
*  2022  2 22  0 42  0.00000000
PL56  -1000.814913   2329.349372   6703.433014
VL56   7206.151700  71251.883000 -23652.183000
*  2022  2 22  0 45  0.00000000
PL56   -838.141609   3562.102328   6163.116825
VL56  10790.375000  65307.361000 -36208.701000
*  2022  2 22  0 48  0.00000000
PL56   -615.728888   4666.266105   5407.480873
VL56  13814.246000  57007.660000 -47506.520000
*  2022  2 22  0 51  0.00000000
PL56   -345.176896   5602.049979   4462.826468
VL56  16114.569000  46655.786000 -57148.908000
*  2022  2 22  0 54  0.00000000
PL56    -40.729209   6335.826933   3362.106183
VL56  17562.091000  34631.459000 -64795.928000
*  2022  2 22  0 57  0.00000000
PL56    281.399352   6841.400942   2143.786486
VL56  18067.998000  21378.297000 -70176.875000
*  2022  2 22  1  0  0.00000000
PL56    603.800233   7101.008027    850.487748
VL56  17589.093000   7386.484300 -73102.472000
*  2022  2 22  1  3  0.00000000
PL56    908.719288   7105.978873   -472.547573
VL56  16130.474000  -6827.268600 -73471.772000
*  2022  2 22  1  6  0.00000000
PL56   1178.929579   6857.037517  -1779.087960
VL56  13745.393000 -20739.510000 -71276.037000
*  2022  2 22  1  9  0.00000000
PL56   1398.581435   6364.220914  -3023.578038
VL56  10533.002000 -33842.125000 -66598.702000
*  2022  2 22  1 12  0.00000000
PL56   1553.988986   5646.430594  -4162.762716
VL56   6633.667900 -45661.567000 -59610.953000
*  2022  2 22  1 15  0.00000000
PL56   1634.317602   4730.641804  -5157.204034
VL56   2222.590000 -55777.057000 -50564.126000
*  2022  2 22  1 18  0.00000000
PL56   1632.139615   3650.815802  -5972.628424
VL56  -2498.320000 -63835.316000 -39778.733000
*  2022  2 22  1 21  0.00000000
PL56   1543.834851   2446.578931  -6581.061422
VL56  -7309.499400 -69561.777000 -27631.917000
*  2022  2 22  1 24  0.00000000
PL56   1369.822242   1161.730229  -6961.723417
VL56 -11983.312000 -72768.306000 -14543.630000
*  2022  2 22  1 27  0.00000000
PL56   1114.618977   -157.358005  -7101.673284
VL56 -16293.635000 -73357.629000   -962.537420
*  2022  2 22  1 30  0.00000000
PL56    786.726312  -1463.395272  -6996.197819
VL56 -20025.505000 -71325.112000  12648.217000
*  2022  2 22  1 33  0.00000000
PL56    398.346173  -2709.832528  -6648.943339
VL56 -22984.148000 -66757.333000  25825.214000
*  2022  2 22  1 36  0.00000000
PL56    -35.060488  -3852.481624  -6071.799511
VL56 -25003.637000 -59829.402000  38118.315000
*  2022  2 22  1 39  0.00000000
PL56   -495.365221  -4851.061397  -5284.531867
VL56 -25954.701000 -50799.135000  49104.886000
*  2022  2 22  1 42  0.00000000
PL56   -962.494484  -5670.620197  -4314.161618
VL56 -25751.539000 -39999.330000  58403.642000
*  2022  2 22  1 45  0.00000000
PL56  -1415.262959  -6282.790896  -3194.100454
VL56 -24357.187000 -27826.812000  65688.027000
*  2022  2 22  1 48  0.00000000
PL56  -1832.287684  -6666.826644  -1963.050940
VL56 -21787.043000 -14728.966000  70698.632000
*  2022  2 22  1 51  0.00000000
PL56  -2192.945220  -6810.369940   -663.698581
VL56 -18110.096000  -1187.680000  73253.940000
*  2022  2 22  1 54  0.00000000
PL56  -2478.328241  -6709.911436    658.768281
VL56 -13447.608000  12299.019000  73258.475000
*  2022  2 22  1 57  0.00000000
PL56  -2672.154949  -6370.904468   1958.254999
VL56  -7969.161700  25236.625000  70707.470000
*  2022  2 22  2  0  0.00000000
PL56  -2761.584005  -5807.523230   3189.406909
VL56  -1886.150900  37153.916000  65687.702000
*  2022  2 22  2  3  0.00000000
PL56  -2737.891150  -5042.072970   4309.233614
VL56   4556.973300  47621.600000  58374.209000
*  2022  2 22  2  6  0.00000000
PL56  -2596.973379  -4104.083548   5278.639863
VL56  11092.981000  56268.729000  49023.336000
*  2022  2 22  2  9  0.00000000
PL56  -2339.659472  -3029.133191   6063.803942
VL56  17443.088000  62796.240000  37962.805000
*  2022  2 22  2 12  0.00000000
PL56  -1971.810505  -1857.457609   6637.352600
VL56  23328.911000  66987.002000  25579.128000
*  2022  2 22  2 15  0.00000000
PL56  -1504.207291   -632.412663   6979.297401
VL56  28484.105000  68712.316000  12303.921000
*  2022  2 22  2 18  0.00000000
PL56   -952.232735    601.152650   7077.709267
VL56  32665.424000  67935.172000  -1401.535800
*  2022  2 22  2 21  0.00000000
PL56   -335.362484   1798.548482   6929.117291
VL56  35663.081000  64710.093000 -15061.242000
*  2022  2 22  2 24  0.00000000
PL56    323.525024   2916.871222   6538.632022
VL56  37310.257000  59180.307000 -28200.324000
*  2022  2 22  2 27  0.00000000
PL56    998.998093   3916.553728   5919.783641
VL56  37491.255000  51572.090000 -40360.792000
*  2022  2 22  2 30  0.00000000
PL56   1664.051016   4762.788627   5094.079198
VL56  36147.807000  42186.414000 -51116.890000
*  2022  2 22  2 33  0.00000000
PL56   2291.181944   5426.778465   4090.283641
VL56  33283.629000  31388.033000 -60090.384000
*  2022  2 22  2 36  0.00000000
PL56   2853.529930   5886.762198   2943.438394
VL56  28966.335000  19591.564000 -66964.299000
*  2022  2 22  2 39  0.00000000
PL56   3326.024556   6128.779474   1693.641486
VL56  23326.828000   7246.283700 -71495.712000
*  2022  2 22  2 42  0.00000000
PL56   3686.492530   6147.127460    384.617945
VL56  16555.197000  -5182.661200 -73525.930000
*  2022  2 22  2 45  0.00000000
PL56   3916.663104   5944.480345   -937.853885
VL56   8893.610200 -17232.876000 -72986.256000
*  2022  2 22  2 48  0.00000000
PL56   4003.025535   5531.669365  -2227.594005
VL56    626.961080 -28463.448000 -69900.756000
*  2022  2 22  2 51  0.00000000
PL56   3937.494725   4927.136097  -3439.679440
VL56  -7928.880700 -38472.462000 -64384.494000
*  2022  2 22  2 54  0.00000000
PL56   3717.851264   4156.088827  -4532.039142
VL56 -16440.323000 -46912.302000 -56638.009000
*  2022  2 22  2 57  0.00000000
PL56   3347.938413   3249.411695  -5466.915023
VL56 -24569.557000 -53501.607000 -46938.267000
*  2022  2 22  3  0  0.00000000
PL56   2837.615518   2242.387656  -6212.138806
VL56 -31988.145000 -58034.157000 -35627.309000
*  2022  2 22  3  3  0.00000000
PL56   2202.474990   1173.296130  -6742.185506
VL56 -38389.581000 -60383.824000 -23098.897000
*  2022  2 22  3  6  0.00000000
PL56   1463.341797     81.949601  -7038.979661
VL56 -43500.691000 -60506.357000  -9784.673900
*  2022  2 22  3  9  0.00000000
PL56    645.580174   -991.774101  -7092.449560
VL56 -47091.935000 -58438.436000   3859.990200
EOF
